FLOCK 1C-3              
1 40041U 14033AH  17227.72521495  .00000502  00000-0  59746-4 0  9996
2 40041  97.9230 140.2365 0014632  92.8424 267.4534 14.88704969171340
POLYITAN-1              
1 40042U 14033AJ  17227.42644864  .00000276  00000-0  36102-4 0  9999
2 40042  97.9157 138.4214 0016299  97.5898 262.7170 14.88092753170725
TIGRISAT                
1 40043U 14033AK  17227.50666023  .00000110  00000-0  23742-4 0  9993
2 40043  97.8490 110.2263 0061626 102.9935 257.8165 14.73998186169270
LEMUR-1                 
1 40044U 14033AL  17227.63069725  .00000128  00000-0  26637-4 0  9999
2 40044  97.8487 110.0741 0060762 103.7315 257.0668 14.73822583169173
AEROCUBE 6A             
1 40045U 14033AM  17227.16178943  .00000296  00000-0  50344-4 0  9999
2 40045  97.8613 111.2027 0059808  99.2478 261.5502 14.74860282169179
AEROCUBE 6B             
1 40046U 14033AN  17227.56887409  .00000287  00000-0  49098-4 0  9992
2 40046  97.8605 111.5275 0058894  97.6316 263.1587 14.74863970169231
UKUBE-1                 
1 40074U 14037F   17227.84950182  .00000267  00000-0  39522-4 0  9996
2 40074  98.3529 345.4670 0003908 204.4666 155.6380 14.83537168168021
BRITE-PL 2              
1 40119U 14049B   17227.54415676  .00000106  00000-0  19201-4 0  9994
2 40119  97.9351 313.1304 0016174 254.3292 105.6138 14.84158147161872
FIREBIRD 4              
1 40378U 15003C   17227.75575608  .00002635  00000-0  11432-3 0  9993
2 40378  99.1228  63.6473 0136130 164.4753 196.0714 15.15601576140031
GRIFEX                  
1 40379U 15003D   17227.57270147  .00001742  00000-0  81753-4 0  9996
2 40379  99.1250  60.9562 0141903 173.4067 186.9070 15.13105199139857
EXOCUBE                 
1 40380U 15003E   17227.74918389  .00001539  00000-0  75254-4 0  9997
2 40380  99.1293  59.7851 0145507 177.2507 182.9553 15.11594273139796
DEORBITSAIL             
1 40719U 15032E   17227.57169756  .00000344  00000-0  57279-4 0  9992
2 40719  97.9733 120.5672 0015686 317.0424  42.9560 14.76106438113080
TIANWANG 1C (TW-1C)     
1 40926U 15051B   17227.86339300  .00005582  00000-0  12660-3 0  9992
2 40926  97.2254 266.9741 0009781 319.7069 156.8144 15.43433640106129
TIANWANG 1B (TW-1B)     
1 40927U 15051C   17227.77728293  .00005683  00000-0  13374-3 0  9991
2 40927  97.2337 266.8812 0010163 332.3560 118.2881 15.42313463106054
TIANWANG 1A (TW-1A)     
1 40928U 15051D   17227.82005506  .00002744  00000-0  79204-4 0  9993
2 40928  97.2230 262.5632 0012324 352.7776 118.4995 15.36464553105851
LEMUR-2-JOEL            
1 40932U 15052C   17227.48824659  .00000811  00000-0  22708-4 0  9999
2 40932   6.0074 164.4734 0013981  19.9220 340.0485 14.77495390101792
LEMUR-2-CHRIS           
1 40933U 15052D   17227.48482962  .00000729  00000-0  11277-4 0  9994
2 40933   6.0024 163.1986 0014147  19.7257 340.3445 14.77635856101800
LEMUR-2-JEROEN          
1 40934U 15052E   17223.36375300 -.00030528  00000-0 -43466-2 0  9990
2 40934   6.0107 198.2668 0012179 309.3394  50.6350 14.76854332101113
LEMUR-2-PETER           
1 40935U 15052F   17227.44375404  .00000830  00000-0  26670-4 0  9990
2 40935   6.0016 170.6895 0011035 359.4341   0.7388 14.76753197101717
EXACTVIEW 9             
1 40936U 15052G   17226.31587731  .00000758  00000-0  17312-4 0  9996
2 40936   6.0023 181.3575 0010276 337.2417  22.4222 14.76266938101545
ATHENOXAT 1             
1 41168U 15077C   17227.47811613  .00001793  00000-0  63622-4 0  9993
2 41168  14.9832  96.2370 0012246 119.7360  80.3965 15.11716467 92021
GALASSIA                
1 41170U 15077E   17227.73814760  .00001835  00000-0  64797-4 0  9992
2 41170  14.9890  90.3754 0013405 140.5093 219.6206 15.12208193 92109
VELOX 2                 
1 41171U 15077F   17227.47180209  .00001524  00000-0  51667-4 0  9995
2 41171  14.9914 105.8138 0009040  91.3030 268.8326 15.09957071 91941
AGGIESAT 4              
1 41313U 98067HP  17227.78277454  .00020655  00000-0  13099-3 0  9998
2 41313  51.6405  56.1663 0002522  18.8944 341.2149 15.76497722 88322
HORYU-IV                
1 41340U 16012D   17226.98858999  .00000459  00000-0  28626-4 0  9991
2 41340  31.0056  94.9413 0014395 296.7114  63.2048 15.00642959 81857
OUFTI-1                 
1 41458U 16025C   17227.61967415  .00001305  00000-0  73075-4 0  9999
2 41458  98.1797 268.5973 0175128  91.6432 270.4859 15.03355828 71513
E-ST@R-II               
1 41459U 16025D   17227.58056075  .00001795  00000-0  98842-4 0  9999
2 41459  98.1820 268.4963 0176201  91.6944 270.4466 15.03195601 71492
AAUSAT 4                
1 41460U 16025E   17227.80795959  .00002275  00000-0  12425-3 0  9993
2 41460  98.1718 268.8723 0168243  88.7667 273.2819 15.04136950 71557
DIWATA-1                
1 41463U 98067HT  17227.88656267  .00006415  00000-0  74702-4 0  9995
2 41463  51.6414  83.8636 0001232  73.2040  22.7245 15.63118875 74131
NODES 2                 
1 41477U 98067HX  17227.53067102  .00102916  15133-4  31114-3 0  9995
2 41477  51.6238  52.6635 0003072 287.0577  73.0092 15.92060757 71499
NODES 1                 
1 41478U 98067HY  17227.79026584  .00095859  14540-4  30777-3 0  9995
2 41478  51.6280  52.2071 0002842 285.3051  74.7640 15.90944639 71528
FLOCK 2E'-1             
1 41479U 98067HZ  17227.78804406  .00016220  00000-0  13041-3 0  9994
2 41479  51.6345  71.9965 0001729 114.4084 245.7094 15.71128737 71224
FLOCK 2E'-3             
1 41480U 98067JA  17227.81887988  .00014747  00000-0  12028-3 0  9992
2 41480  51.6344  71.4735 0001159 154.9663 205.1392 15.70873046 71224
FLOCK 2E'-2             
1 41481U 98067JB  17227.80212403  .00014421  00000-0  11333-3 0  9993
2 41481  51.6327  69.8039 0001553 103.0074 257.1098 15.71790699 71237
FLOCK 2E'-4             
1 41482U 98067JC  17227.74499003  .00018105  00000-0  12595-3 0  9994
2 41482  51.6312  67.8928 0000969 224.1931 135.8991 15.74464512 71255
FLOCK 2E-1              
1 41483U 98067JD  17227.81807590  .00011456  00000-0  99481-4 0  9999
2 41483  51.6363  73.0220 0001094 234.0967 125.9929 15.69625225 71069
FLOCK 2E-2              
1 41484U 98067JE  17227.80839523  .00013699  00000-0  10971-3 0  9997
2 41484  51.6373  70.7241 0000738 247.3587 112.7333 15.71387971 71099
FLOCK 2E-3              
1 41486U 98067JG  17227.83684757  .00011180  00000-0  96517-4 0  9993
2 41486  51.6355  74.6361 0000823 262.9727  97.1177 15.69800112 71064
FLOCK 2E-4              
1 41487U 98067JH  17227.80706696  .00011258  00000-0  97544-4 0  9995
2 41487  51.6359  72.9123 0001822 312.6408  47.4435 15.69704040 71085
FLOCK 2E-6              
1 41563U 98067JM  17227.41451124  .00009954  00000-0  92865-4 0  9991
2 41563  51.6353  77.7921 0001984  99.4669 260.6552 15.68039340 69057
FLOCK 2E-5              
1 41564U 98067JN  17227.81124783  .00010224  00000-0  95514-4 0  9990
2 41564  51.6356  75.9508 0001733 106.0737 254.0451 15.67966725 69101
FLOCK 2E-7              
1 41565U 98067JP  17227.81274005  .00015292  00000-0  12065-3 0  9993
2 41565  51.6347  70.6592 0002593 357.0412   3.0570 15.71637985 69078
FLOCK 2E'-5             
1 41567U 98067JR  17227.83821933  .00009520  00000-0  92641-4 0  9991
2 41567  51.6365  77.6540 0003450  14.9534 345.1564 15.67045250 68959
FLOCK 2E'-6             
1 41568U 98067JS  17227.80731274  .00011600  00000-0  10285-3 0  9992
2 41568  51.6350  74.3917 0002879  15.6553 344.4533 15.69099226 69020
FLOCK 2E'-8             
1 41569U 98067JT  17227.83538904  .00016752  00000-0  12999-3 0  9998
2 41569  51.6347  70.0604 0000457 330.1657  29.9315 15.71950902 68968
FLOCK 2E'-7             
1 41570U 98067JU  17227.79250696  .00063490  00000-0  40695-3 0  9999
2 41570  51.6345  66.0186 0001579 278.8086  81.2735 15.75662852 69032
FLOCK 2E-9              
1 41571U 98067JV  17227.80256333  .00016361  00000-0  12236-3 0  9991
2 41571  51.6350  69.1051 0001784   7.2777 352.8247 15.72850954 68957
FLOCK 2E-10             
1 41572U 98067JW  17227.77691120  .00014959  00000-0  12153-3 0  9994
2 41572  51.6352  71.9503 0002719   2.1458 357.9551 15.70953547 68912
FLOCK 2E-12             
1 41573U 98067JX  17227.74424758  .00015879  00000-0  12378-3 0  9994
2 41573  51.6344  70.9601 0002439  20.5238 339.5857 15.71890625 68925
FLOCK 2E-11             
1 41574U 98067JY  17227.03430018  .00021458  00000-0  16434-3 0  9990
2 41574  51.6334  73.6667 0003210  16.5565 343.5538 15.72063498 68824
FLOCK 2E'-9             
1 41575U 98067JZ  17227.81370143  .00018355  00000-0  13367-3 0  9993
2 41575  51.6323  68.3401 0003050  39.7155 320.4066 15.73378682 68953
FLOCK 2E'-10            
1 41576U 98067KA  17227.79345076  .00016893  00000-0  13037-3 0  9997
2 41576  51.6355  70.5696 0003058  34.9794 325.1405 15.72073008 68822
FLOCK 2E'-11            
1 41577U 98067KB  17227.78798806  .00015946  00000-0  12678-3 0  9998
2 41577  51.6359  71.2963 0003104  10.8712 349.2353 15.71412527 68637
FLOCK 2E'-12            
1 41578U 98067KC  17227.79687861  .00018945  00000-0  13947-3 0  9990
2 41578  51.6336  69.7630 0002809 358.8299   1.2693 15.73096858 68653
FLOCK 2P-6              
1 41606U 16040H   17227.84895442  .00002343  00000-0  10434-3 0  9998
2 41606  97.4548 290.0833 0009905 217.6724 142.3820 15.22424832 63780
FLOCK 2P-11             
1 41608U 16040K   17227.72298413  .00002183  00000-0  97385-4 0  9995
2 41608  97.4544 289.9256 0009929 218.3509 141.7023 15.22437963 63708
FLOCK 2P-2              
1 41609U 16040L   17227.73949138  .00001510  00000-0  68343-4 0  9999
2 41609  97.4549 289.9317 0009805 217.8756 142.1791 15.22408508 63680
FLOCK 2P-9              
1 41610U 16040M   17227.75041261  .00001434  00000-0  65058-4 0  9998
2 41610  97.4546 289.9021 0010076 218.4080 141.6440 15.22418675 63568
FLOCK 2P-4              
1 41611U 16040N   17227.71201442  .00001103  00000-0  50745-4 0  9994
2 41611  97.4573 290.0856 0009991 228.6929 131.3448 15.22423192 63729
